STARLINK-36700          
1 67662U 26022Q   26058.86178973  .00293800  00000+0  19006-2 0  9998
2 67662  97.2838  92.3818 0001105  71.4422 288.6963 15.75226241  4005
STARLINK-36675          
1 67663U 26022R   26058.67261882  .00141919  00000+0  93565-3 0  9996
2 67663  97.2843  92.1801 0001370  96.8058 263.3364 15.75214266  3976
STARLINK-36404          
1 67664U 26022S   26058.66944993  .00245871  00000+0  16007-2 0  9994
2 67664  97.2842  92.1832 0003200  87.0499 273.1133 15.75210396  3978
STARLINK-36399          
1 67665U 26022T   26058.54166367  .00334428  00000+0  21390-2 0  9991
2 67665  97.2834  92.0514 0004801 272.8673  87.2042 15.75370224  3950
STARLINK-36365          
1 67666U 26022U   26058.85790733  .00359713  00000+0  23042-2 0  9996
2 67666  97.2817  92.3864 0001199 109.3795 250.7600 15.75272033  4002
STARLINK-36622          
1 67667U 26022V   26058.09380668  .00054181  00000+0  36154-3 0  9995
2 67667  97.2858  91.5908 0001562  87.8927 272.2517 15.75207906  3887
STARLINK-36625          
1 67668U 26022W   26058.53708701  .00321275  00000+0  20666-2 0  9998
2 67668  97.2841  92.0572 0000669 238.9912 121.1288 15.75280894  3955
STARLINK-36639          
1 67669U 26022X   26058.53532513  .00313288  00000+0  20177-2 0  9997
2 67669  97.2837  92.0595 0000291 133.0569 227.0721 15.75274096  3955
STARLINK-36596          
1 67670U 26022Y   26058.34297762  .00155408  00000+0  10222-2 0  9990
2 67670  97.2852  91.8623 0003468 100.8733 259.2922 15.75223917  3920
STARLINK-36297          
1 67671U 26022Z   26058.53144226  .00312022  00000+0  20070-2 0  9997
2 67671  97.2823  92.0639 0000846 285.2347  74.8825 15.75308338  3952
STARLINK-36616          
1 67672U 26022AA  26058.53285642  .00246650  00000+0  16033-2 0  9993
2 67672  97.2841  92.0626 0000240  18.4648 341.6626 15.75244685  3955
COSMOS 2600             
1 67674U 26023A   26058.91605928  .00076843  00000+0  35230-3 0  9997
2 67674  96.6452 134.8676 0003265  47.6241 312.5307 15.83469622  3504
