CCSDS_OMM_VERS = 2.0
CREATION_DATE  = 
ORIGINATOR     = 

OBJECT_NAME    = STARLINK-36700
OBJECT_ID      = 2026-022Q
CENTER_NAME    = EARTH
REF_FRAME      = TEME
TIME_SYSTEM    = UTC
MEAN_ELEMENT_THEORY = SGP/SGP4

EPOCH          = 2026-02-27T20:40:58.632672
MEAN_MOTION    = 15.75226241
ECCENTRICITY   = .00011059
INCLINATION    = 97.2838
RA_OF_ASC_NODE = 92.3818
ARG_OF_PERICENTER = 71.4422
MEAN_ANOMALY   = 288.6963

EPHEMERIS_TYPE = 0
CLASSIFICATION_TYPE = U
NORAD_CAT_ID   = 67662
ELEMENT_SET_NO = 999
REV_AT_EPOCH   = 400
BSTAR          = .19006378E-2
MEAN_MOTION_DOT = .2938E-2
MEAN_MOTION_DDOT = 0

CCSDS_OMM_VERS = 2.0
CREATION_DATE  = 
ORIGINATOR     = 

OBJECT_NAME    = STARLINK-36675
OBJECT_ID      = 2026-022R
CENTER_NAME    = EARTH
REF_FRAME      = TEME
TIME_SYSTEM    = UTC
MEAN_ELEMENT_THEORY = SGP/SGP4

EPOCH          = 2026-02-27T16:08:34.266048
MEAN_MOTION    = 15.75214266
ECCENTRICITY   = .00013708
INCLINATION    = 97.2843
RA_OF_ASC_NODE = 92.1801
ARG_OF_PERICENTER = 96.8058
MEAN_ANOMALY   = 263.3364

EPHEMERIS_TYPE = 0
CLASSIFICATION_TYPE = U
NORAD_CAT_ID   = 67663
ELEMENT_SET_NO = 999
REV_AT_EPOCH   = 397
BSTAR          = .93564662E-3
MEAN_MOTION_DOT = .141919E-2
MEAN_MOTION_DDOT = 0

CCSDS_OMM_VERS = 2.0
CREATION_DATE  = 
ORIGINATOR     = 

OBJECT_NAME    = STARLINK-36404
OBJECT_ID      = 2026-022S
CENTER_NAME    = EARTH
REF_FRAME      = TEME
TIME_SYSTEM    = UTC
MEAN_ELEMENT_THEORY = SGP/SGP4

EPOCH          = 2026-02-27T16:04:00.473952
MEAN_MOTION    = 15.75210396
ECCENTRICITY   = .00032008
INCLINATION    = 97.2842
RA_OF_ASC_NODE = 92.1832
ARG_OF_PERICENTER = 87.0499
MEAN_ANOMALY   = 273.1133

EPHEMERIS_TYPE = 0
CLASSIFICATION_TYPE = U
NORAD_CAT_ID   = 67664
ELEMENT_SET_NO = 999
REV_AT_EPOCH   = 397
BSTAR          = .16006957E-2
MEAN_MOTION_DOT = .245871E-2
MEAN_MOTION_DDOT = 0

CCSDS_OMM_VERS = 2.0
CREATION_DATE  = 
ORIGINATOR     = 

OBJECT_NAME    = STARLINK-36399
OBJECT_ID      = 2026-022T
CENTER_NAME    = EARTH
REF_FRAME      = TEME
TIME_SYSTEM    = UTC
MEAN_ELEMENT_THEORY = SGP/SGP4

EPOCH          = 2026-02-27T12:59:59.741088
MEAN_MOTION    = 15.75370224
ECCENTRICITY   = .00048018
INCLINATION    = 97.2834
RA_OF_ASC_NODE = 92.0514
ARG_OF_PERICENTER = 272.8673
MEAN_ANOMALY   = 87.2042

EPHEMERIS_TYPE = 0
CLASSIFICATION_TYPE = U
NORAD_CAT_ID   = 67665
ELEMENT_SET_NO = 999
REV_AT_EPOCH   = 395
BSTAR          = .2139048E-2
MEAN_MOTION_DOT = .334428E-2
MEAN_MOTION_DDOT = 0

CCSDS_OMM_VERS = 2.0
CREATION_DATE  = 
ORIGINATOR     = 

OBJECT_NAME    = STARLINK-36365
OBJECT_ID      = 2026-022U
CENTER_NAME    = EARTH
REF_FRAME      = TEME
TIME_SYSTEM    = UTC
MEAN_ELEMENT_THEORY = SGP/SGP4

EPOCH          = 2026-02-27T20:35:23.193312
MEAN_MOTION    = 15.75272033
ECCENTRICITY   = .0001199
INCLINATION    = 97.2817
RA_OF_ASC_NODE = 92.3864
ARG_OF_PERICENTER = 109.3795
MEAN_ANOMALY   = 250.7600

EPHEMERIS_TYPE = 0
CLASSIFICATION_TYPE = U
NORAD_CAT_ID   = 67666
ELEMENT_SET_NO = 999
REV_AT_EPOCH   = 400
BSTAR          = .23041729E-2
MEAN_MOTION_DOT = .359713E-2
MEAN_MOTION_DDOT = 0

CCSDS_OMM_VERS = 2.0
CREATION_DATE  = 
ORIGINATOR     = 

OBJECT_NAME    = STARLINK-36622
OBJECT_ID      = 2026-022V
CENTER_NAME    = EARTH
REF_FRAME      = TEME
TIME_SYSTEM    = UTC
MEAN_ELEMENT_THEORY = SGP/SGP4

EPOCH          = 2026-02-27T02:15:04.897152
MEAN_MOTION    = 15.75207906
ECCENTRICITY   = .00015623
INCLINATION    = 97.2858
RA_OF_ASC_NODE = 91.5908
ARG_OF_PERICENTER = 87.8927
MEAN_ANOMALY   = 272.2517

EPHEMERIS_TYPE = 0
CLASSIFICATION_TYPE = U
NORAD_CAT_ID   = 67667
ELEMENT_SET_NO = 999
REV_AT_EPOCH   = 388
BSTAR          = .36153633E-3
MEAN_MOTION_DOT = .54181E-3
MEAN_MOTION_DDOT = 0

CCSDS_OMM_VERS = 2.0
CREATION_DATE  = 
ORIGINATOR     = 

OBJECT_NAME    = STARLINK-36625
OBJECT_ID      = 2026-022W
CENTER_NAME    = EARTH
REF_FRAME      = TEME
TIME_SYSTEM    = UTC
MEAN_ELEMENT_THEORY = SGP/SGP4

EPOCH          = 2026-02-27T12:53:24.317664
MEAN_MOTION    = 15.75280894
ECCENTRICITY   = .00006696
INCLINATION    = 97.2841
RA_OF_ASC_NODE = 92.0572
ARG_OF_PERICENTER = 238.9912
MEAN_ANOMALY   = 121.1288

EPHEMERIS_TYPE = 0
CLASSIFICATION_TYPE = U
NORAD_CAT_ID   = 67668
ELEMENT_SET_NO = 999
REV_AT_EPOCH   = 395
BSTAR          = .20666071E-2
MEAN_MOTION_DOT = .321275E-2
MEAN_MOTION_DDOT = 0

CCSDS_OMM_VERS = 2.0
CREATION_DATE  = 
ORIGINATOR     = 

OBJECT_NAME    = STARLINK-36639
OBJECT_ID      = 2026-022X
CENTER_NAME    = EARTH
REF_FRAME      = TEME
TIME_SYSTEM    = UTC
MEAN_ELEMENT_THEORY = SGP/SGP4

EPOCH          = 2026-02-27T12:50:52.091232
MEAN_MOTION    = 15.75274096
ECCENTRICITY   = .00002918
INCLINATION    = 97.2837
RA_OF_ASC_NODE = 92.0595
ARG_OF_PERICENTER = 133.0569
MEAN_ANOMALY   = 227.0721

EPHEMERIS_TYPE = 0
CLASSIFICATION_TYPE = U
NORAD_CAT_ID   = 67669
ELEMENT_SET_NO = 999
REV_AT_EPOCH   = 395
BSTAR          = .20176925E-2
MEAN_MOTION_DOT = .313288E-2
MEAN_MOTION_DDOT = 0

CCSDS_OMM_VERS = 2.0
CREATION_DATE  = 
ORIGINATOR     = 

OBJECT_NAME    = STARLINK-36596
OBJECT_ID      = 2026-022Y
CENTER_NAME    = EARTH
REF_FRAME      = TEME
TIME_SYSTEM    = UTC
MEAN_ELEMENT_THEORY = SGP/SGP4

EPOCH          = 2026-02-27T08:13:53.266368
MEAN_MOTION    = 15.75223917
ECCENTRICITY   = .0003468
INCLINATION    = 97.2852
RA_OF_ASC_NODE = 91.8623
ARG_OF_PERICENTER = 100.8733
MEAN_ANOMALY   = 259.2922

EPHEMERIS_TYPE = 0
CLASSIFICATION_TYPE = U
NORAD_CAT_ID   = 67670
ELEMENT_SET_NO = 999
REV_AT_EPOCH   = 392
BSTAR          = .10222E-2
MEAN_MOTION_DOT = .155408E-2
MEAN_MOTION_DDOT = 0

CCSDS_OMM_VERS = 2.0
CREATION_DATE  = 
ORIGINATOR     = 

OBJECT_NAME    = STARLINK-36297
OBJECT_ID      = 2026-022Z
CENTER_NAME    = EARTH
REF_FRAME      = TEME
TIME_SYSTEM    = UTC
MEAN_ELEMENT_THEORY = SGP/SGP4

EPOCH          = 2026-02-27T12:45:16.611264
MEAN_MOTION    = 15.75308338
ECCENTRICITY   = .00008462
INCLINATION    = 97.2823
RA_OF_ASC_NODE = 92.0639
ARG_OF_PERICENTER = 285.2347
MEAN_ANOMALY   = 74.8825

EPHEMERIS_TYPE = 0
CLASSIFICATION_TYPE = U
NORAD_CAT_ID   = 67671
ELEMENT_SET_NO = 999
REV_AT_EPOCH   = 395
BSTAR          = .20069582E-2
MEAN_MOTION_DOT = .312022E-2
MEAN_MOTION_DDOT = 0

CCSDS_OMM_VERS = 2.0
CREATION_DATE  = 
ORIGINATOR     = 

OBJECT_NAME    = STARLINK-36616
OBJECT_ID      = 2026-022AA
CENTER_NAME    = EARTH
REF_FRAME      = TEME
TIME_SYSTEM    = UTC
MEAN_ELEMENT_THEORY = SGP/SGP4

EPOCH          = 2026-02-27T12:47:18.794688
MEAN_MOTION    = 15.75244685
ECCENTRICITY   = .00002407
INCLINATION    = 97.2841
RA_OF_ASC_NODE = 92.0626
ARG_OF_PERICENTER = 18.4648
MEAN_ANOMALY   = 341.6626

EPHEMERIS_TYPE = 0
CLASSIFICATION_TYPE = U
NORAD_CAT_ID   = 67672
ELEMENT_SET_NO = 999
REV_AT_EPOCH   = 395
BSTAR          = .16033485E-2
MEAN_MOTION_DOT = .24665E-2
MEAN_MOTION_DDOT = 0

CCSDS_OMM_VERS = 2.0
CREATION_DATE  = 
ORIGINATOR     = 

OBJECT_NAME    = COSMOS 2600
OBJECT_ID      = 2026-023A
CENTER_NAME    = EARTH
REF_FRAME      = TEME
TIME_SYSTEM    = UTC
MEAN_ELEMENT_THEORY = SGP/SGP4

EPOCH          = 2026-02-27T21:59:07.521792
MEAN_MOTION    = 15.83469622
ECCENTRICITY   = .00032654
INCLINATION    = 96.6452
RA_OF_ASC_NODE = 134.8676
ARG_OF_PERICENTER = 47.6241
MEAN_ANOMALY   = 312.5307

EPHEMERIS_TYPE = 0
CLASSIFICATION_TYPE = U
NORAD_CAT_ID   = 67674
ELEMENT_SET_NO = 999
REV_AT_EPOCH   = 350
BSTAR          = .35229823E-3
MEAN_MOTION_DOT = .76843E-3
MEAN_MOTION_DDOT = 0

